CCSDS_OMM_VERS = 2.0
CREATION_DATE  = 
ORIGINATOR     = 

OBJECT_NAME    = PROGRESS-MS 32
OBJECT_ID      = 2025-204A
CENTER_NAME    = EARTH
REF_FRAME      = TEME
TIME_SYSTEM    = UTC
MEAN_ELEMENT_THEORY = SGP/SGP4

EPOCH          = 2025-12-01T13:49:44.445504
MEAN_MOTION    = 15.49226524
ECCENTRICITY   = .00036473
INCLINATION    = 51.6309
RA_OF_ASC_NODE = 197.7449
ARG_OF_PERICENTER = 190.9481
MEAN_ANOMALY   = 169.1428

EPHEMERIS_TYPE = 0
CLASSIFICATION_TYPE = U
NORAD_CAT_ID   = 65586
ELEMENT_SET_NO = 999
REV_AT_EPOCH   = 27
BSTAR          = .16365535E-3
MEAN_MOTION_DOT = .8648E-4
MEAN_MOTION_DDOT = 0

CCSDS_OMM_VERS = 2.0
CREATION_DATE  = 
ORIGINATOR     = 

OBJECT_NAME    = CYGNUS NG-23
OBJECT_ID      = 2025-208A
CENTER_NAME    = EARTH
REF_FRAME      = TEME
TIME_SYSTEM    = UTC
MEAN_ELEMENT_THEORY = SGP/SGP4

EPOCH          = 2025-12-01T13:49:44.445504
MEAN_MOTION    = 15.49226524
ECCENTRICITY   = .00036473
INCLINATION    = 51.6309
RA_OF_ASC_NODE = 197.7449
ARG_OF_PERICENTER = 190.9481
MEAN_ANOMALY   = 169.1428

EPHEMERIS_TYPE = 0
CLASSIFICATION_TYPE = U
NORAD_CAT_ID   = 65616
ELEMENT_SET_NO = 999
REV_AT_EPOCH   = 22
BSTAR          = .16365535E-3
MEAN_MOTION_DOT = .8648E-4
MEAN_MOTION_DDOT = 0

CCSDS_OMM_VERS = 2.0
CREATION_DATE  = 
ORIGINATOR     = 

OBJECT_NAME    = DRAGONFLY
OBJECT_ID      = 1998-067XH
CENTER_NAME    = EARTH
REF_FRAME      = TEME
TIME_SYSTEM    = UTC
MEAN_ELEMENT_THEORY = SGP/SGP4

EPOCH          = 2025-12-01T20:27:20.656224
MEAN_MOTION    = 15.67778050
ECCENTRICITY   = .0006425
INCLINATION    = 51.6261
RA_OF_ASC_NODE = 191.3365
ARG_OF_PERICENTER = 210.8786
MEAN_ANOMALY   = 149.1833

EPHEMERIS_TYPE = 0
CLASSIFICATION_TYPE = U
NORAD_CAT_ID   = 65729
ELEMENT_SET_NO = 999
REV_AT_EPOCH   = 1145
BSTAR          = .10934E-2
MEAN_MOTION_DOT = .123925E-2
MEAN_MOTION_DDOT = 0

CCSDS_OMM_VERS = 2.0
CREATION_DATE  = 
ORIGINATOR     = 

OBJECT_NAME    = 1998-067XJ
OBJECT_ID      = 1998-067XJ
CENTER_NAME    = EARTH
REF_FRAME      = TEME
TIME_SYSTEM    = UTC
MEAN_ELEMENT_THEORY = SGP/SGP4

EPOCH          = 2025-12-01T20:03:18.916704
MEAN_MOTION    = 16.13832998
ECCENTRICITY   = .0010756
INCLINATION    = 51.6109
RA_OF_ASC_NODE = 185.8826
ARG_OF_PERICENTER = 242.8010
MEAN_ANOMALY   = 117.1910

EPHEMERIS_TYPE = 0
CLASSIFICATION_TYPE = U
NORAD_CAT_ID   = 65730
ELEMENT_SET_NO = 999
REV_AT_EPOCH   = 1152
BSTAR          = .27371E-2
MEAN_MOTION_DOT = .2710772E-1
MEAN_MOTION_DDOT = .14802E-1

CCSDS_OMM_VERS = 2.0
CREATION_DATE  = 
ORIGINATOR     = 

OBJECT_NAME    = 1998-067XK
OBJECT_ID      = 1998-067XK
CENTER_NAME    = EARTH
REF_FRAME      = TEME
TIME_SYSTEM    = UTC
MEAN_ELEMENT_THEORY = SGP/SGP4

EPOCH          = 2025-12-01T19:27:46.296864
MEAN_MOTION    = 15.63187370
ECCENTRICITY   = .0005928
INCLINATION    = 51.6288
RA_OF_ASC_NODE = 192.5703
ARG_OF_PERICENTER = 183.4373
MEAN_ANOMALY   = 176.6582

EPHEMERIS_TYPE = 0
CLASSIFICATION_TYPE = U
NORAD_CAT_ID   = 65731
ELEMENT_SET_NO = 999
REV_AT_EPOCH   = 1143
BSTAR          = .80447E-3
MEAN_MOTION_DOT = .75235E-3
MEAN_MOTION_DDOT = 0

CCSDS_OMM_VERS = 2.0
CREATION_DATE  = 
ORIGINATOR     = 

OBJECT_NAME    = RSP-03
OBJECT_ID      = 1998-067XL
CENTER_NAME    = EARTH
REF_FRAME      = TEME
TIME_SYSTEM    = UTC
MEAN_ELEMENT_THEORY = SGP/SGP4

EPOCH          = 2025-12-01T19:59:56.239584
MEAN_MOTION    = 15.65356239
ECCENTRICITY   = .0006786
INCLINATION    = 51.6276
RA_OF_ASC_NODE = 191.9628
ARG_OF_PERICENTER = 186.6272
MEAN_ANOMALY   = 173.4635

EPHEMERIS_TYPE = 0
CLASSIFICATION_TYPE = U
NORAD_CAT_ID   = 65732
ELEMENT_SET_NO = 999
REV_AT_EPOCH   = 1145
BSTAR          = .97939E-3
MEAN_MOTION_DOT = .100299E-2
MEAN_MOTION_DDOT = 0

CCSDS_OMM_VERS = 2.0
CREATION_DATE  = 
ORIGINATOR     = 

OBJECT_NAME    = GHS-01
OBJECT_ID      = 1998-067XM
CENTER_NAME    = EARTH
REF_FRAME      = TEME
TIME_SYSTEM    = UTC
MEAN_ELEMENT_THEORY = SGP/SGP4

EPOCH          = 2025-12-01T19:41:20.291136
MEAN_MOTION    = 15.69686593
ECCENTRICITY   = .0007042
INCLINATION    = 51.6281
RA_OF_ASC_NODE = 191.1284
ARG_OF_PERICENTER = 209.8558
MEAN_ANOMALY   = 150.2038

EPHEMERIS_TYPE = 0
CLASSIFICATION_TYPE = U
NORAD_CAT_ID   = 65733
ELEMENT_SET_NO = 999
REV_AT_EPOCH   = 1146
BSTAR          = .12238E-2
MEAN_MOTION_DOT = .150647E-2
MEAN_MOTION_DDOT = 0

CCSDS_OMM_VERS = 2.0
CREATION_DATE  = 
ORIGINATOR     = 

OBJECT_NAME    = YOTSUBA-KULOVER
OBJECT_ID      = 1998-067XN
CENTER_NAME    = EARTH
REF_FRAME      = TEME
TIME_SYSTEM    = UTC
MEAN_ELEMENT_THEORY = SGP/SGP4

EPOCH          = 2025-12-01T14:52:06.534912
MEAN_MOTION    = 15.57565098
ECCENTRICITY   = .00022157
INCLINATION    = 51.6287
RA_OF_ASC_NODE = 195.7889
ARG_OF_PERICENTER = 159.9481
MEAN_ANOMALY   = 200.1599

EPHEMERIS_TYPE = 0
CLASSIFICATION_TYPE = U
NORAD_CAT_ID   = 65941
ELEMENT_SET_NO = 999
REV_AT_EPOCH   = 812
BSTAR          = .79143347E-3
MEAN_MOTION_DOT = .59437E-3
MEAN_MOTION_DDOT = 0

CCSDS_OMM_VERS = 2.0
CREATION_DATE  = 
ORIGINATOR     = 

OBJECT_NAME    = BOTAN
OBJECT_ID      = 1998-067XP
CENTER_NAME    = EARTH
REF_FRAME      = TEME
TIME_SYSTEM    = UTC
MEAN_ELEMENT_THEORY = SGP/SGP4

EPOCH          = 2025-12-01T00:07:46.260192
MEAN_MOTION    = 15.59944090
ECCENTRICITY   = .00045874
INCLINATION    = 51.6292
RA_OF_ASC_NODE = 198.4381
ARG_OF_PERICENTER = 161.3348
MEAN_ANOMALY   = 198.7814

EPHEMERIS_TYPE = 0
CLASSIFICATION_TYPE = U
NORAD_CAT_ID   = 65942
ELEMENT_SET_NO = 999
REV_AT_EPOCH   = 803
BSTAR          = .10535817E-2
MEAN_MOTION_DOT = .87116E-3
MEAN_MOTION_DDOT = 0

CCSDS_OMM_VERS = 2.0
CREATION_DATE  = 
ORIGINATOR     = 

OBJECT_NAME    = E-KAGAKU-1
OBJECT_ID      = 1998-067XQ
CENTER_NAME    = EARTH
REF_FRAME      = TEME
TIME_SYSTEM    = UTC
MEAN_ELEMENT_THEORY = SGP/SGP4

EPOCH          = 2025-12-01T01:00:17.648352
MEAN_MOTION    = 15.57460747
ECCENTRICITY   = .00037303
INCLINATION    = 51.6301
RA_OF_ASC_NODE = 198.6831
ARG_OF_PERICENTER = 140.2253
MEAN_ANOMALY   = 219.9013

EPHEMERIS_TYPE = 0
CLASSIFICATION_TYPE = U
NORAD_CAT_ID   = 65943
ELEMENT_SET_NO = 999
REV_AT_EPOCH   = 803
BSTAR          = .8573363E-3
MEAN_MOTION_DOT = .64224E-3
MEAN_MOTION_DDOT = 0

CCSDS_OMM_VERS = 2.0
CREATION_DATE  = 
ORIGINATOR     = 

OBJECT_NAME    = HRC MONOBLOCK CAMERA
OBJECT_ID      = 1998-067XR
CENTER_NAME    = EARTH
REF_FRAME      = TEME
TIME_SYSTEM    = UTC
MEAN_ELEMENT_THEORY = SGP/SGP4

EPOCH          = 2025-12-01T20:16:24.066336
MEAN_MOTION    = 15.53090965
ECCENTRICITY   = .0004504
INCLINATION    = 51.6297
RA_OF_ASC_NODE = 195.7879
ARG_OF_PERICENTER = 140.4183
MEAN_ANOMALY   = 219.7136

EPHEMERIS_TYPE = 0
CLASSIFICATION_TYPE = U
NORAD_CAT_ID   = 66052
ELEMENT_SET_NO = 999
REV_AT_EPOCH   = 714
BSTAR          = .51886E-3
MEAN_MOTION_DOT = .32748E-3
MEAN_MOTION_DDOT = 0

CCSDS_OMM_VERS = 2.0
CREATION_DATE  = 
ORIGINATOR     = 

OBJECT_NAME    = HTV-X1
OBJECT_ID      = 2025-241A
CENTER_NAME    = EARTH
REF_FRAME      = TEME
TIME_SYSTEM    = UTC
MEAN_ELEMENT_THEORY = SGP/SGP4

EPOCH          = 2025-12-01T13:49:44.445504
MEAN_MOTION    = 15.49226524
ECCENTRICITY   = .00036473
INCLINATION    = 51.6309
RA_OF_ASC_NODE = 197.7449
ARG_OF_PERICENTER = 190.9481
MEAN_ANOMALY   = 169.1428

EPHEMERIS_TYPE = 0
CLASSIFICATION_TYPE = U
NORAD_CAT_ID   = 66174
ELEMENT_SET_NO = 999
REV_AT_EPOCH   = 51
BSTAR          = .16365535E-3
MEAN_MOTION_DOT = .8648E-4
MEAN_MOTION_DDOT = 0

